{"fetched_at":"2026-03-30T06:02:59Z","count":15439,"tles":[{"name":"STARLINK-5050","line1":"1 53890U 22119E   26087.80192913 -.00001941  00000+0 -10394-3 0  9992","line2":"2 53890  53.2188 203.1036 0001117  98.6532 261.4587 15.08831292195065","category":"Starlink"}]}