{
  "norad_id": 53890,
  "name": "STARLINK-5050",
  "history": [
    {
      "epoch": "2026-03-28T19:14:46.676832Z",
      "apogee_km": 540.5431512514142,
      "perigee_km": 538.996860677441,
      "latitude_deg": 1.730213375112019e-05,
      "longitude_deg": 88.19197275726165,
      "height_km": 540.7825246650816,
      "semi_major_axis_km": 6917.907005964427,
      "eccentricity": 0.00011176,
      "inclination_deg": 53.2188,
      "raan_deg": 203.1036,
      "arg_perigee_deg": 98.6532,
      "mean_anomaly_deg": 261.4587,
      "mean_motion_rev_day": 15.08831292
    }
  ]
}